{
  "type": "FeatureCollection",
  "features": [
    {
      "type": "Feature",
      "properties": {
        "norad_id": 36744,
        "name": "COMS 1",
        "group": "weather",
        "lat": -4.295500530909038,
        "lon": -19.698673765566305,
        "alt_km": 35785.15336502687,
        "timestamp": "2025-12-08T08:59:00.414642+00:00",
        "meta_object_name": "COMS 1",
        "meta_object_id": "2010-032A",
        "meta_epoch": "2025-12-07T17:45:51.479424",
        "meta_mean_motion": 1.00271292,
        "meta_eccentricity": 0.00011614,
        "meta_inclination": 4.3291,
        "meta_ra_of_asc_node": 78.052,
        "meta_arg_of_pericenter": 192.8793,
        "meta_mean_anomaly": 200.4669,
        "meta_ephemeris_type": 0,
        "meta_classification_type": "U",
        "meta_norad_cat_id": 36744,
        "meta_element_set_no": 999,
        "meta_rev_at_epoch": 4917,
        "meta_bstar": 0,
        "meta_mean_motion_dot": -3.42e-06,
        "meta_mean_motion_ddot": 0,
        "tle_line1": "1 36744U 10032A   25341.74017916 -.00000342  00000+0  00000+0 0  9998",
        "tle_line2": "2 36744   4.3291  78.0520 0001161 192.8793 200.4669  1.00271292 49177"
      },
      "geometry": {
        "type": "Point",
        "coordinates": [
          -19.698673765566305,
          -4.295500530909038
        ]
      }
    },
    {
      "type": "Feature",
      "properties": {
        "norad_id": 37214,
        "name": "FENGYUN 3B",
        "group": "weather",
        "lat": 46.006708611308206,
        "lon": -148.23995532464258,
        "alt_km": 847.6984947119035,
        "timestamp": "2025-12-08T08:59:00.414657+00:00",
        "meta_object_name": "FENGYUN 3B",
        "meta_object_id": "2010-059A",
        "meta_epoch": "2025-12-07T22:26:39.367104",
        "meta_mean_motion": 14.14787687,
        "meta_eccentricity": 0.00222215,
        "meta_inclination": 98.9915,
        "meta_ra_of_asc_node": 21.8789,
        "meta_arg_of_pericenter": 11.3833,
        "meta_mean_anomaly": 46.2158,
        "meta_ephemeris_type": 0,
        "meta_classification_type": "U",
        "meta_norad_cat_id": 37214,
        "meta_element_set_no": 999,
        "meta_rev_at_epoch": 78038,
        "meta_bstar": 0.00010775334,
        "meta_mean_motion_dot": 1.63e-06,
        "meta_mean_motion_ddot": 0,
        "tle_line1": "1 37214U 10059A   25341.93517786  .00000163  00000+0  10775-3 0  9995",
        "tle_line2": "2 37214  98.9915  21.8789 0022221  11.3833  46.2158 14.14787687780388"
      },
      "geometry": {
        "type": "Point",
        "coordinates": [
          -148.23995532464258,
          46.006708611308206
        ]
      }
    },
    {
      "type": "Feature",
      "properties": {
        "norad_id": 37849,
        "name": "SUOMI NPP",
        "group": "weather",
        "lat": -76.5143097479338,
        "lon": 59.64961070387753,
        "alt_km": 835.3191020390823,
        "timestamp": "2025-12-08T08:59:00.414672+00:00",
        "meta_object_name": "SUOMI NPP",
        "meta_object_id": "2011-061A",
        "meta_epoch": "2025-12-07T21:36:49.572864",
        "meta_mean_motion": 14.19511923,
        "meta_eccentricity": 0.00020814,
        "meta_inclination": 98.7766,
        "meta_ra_of_asc_node": 279.2859,
        "meta_arg_of_pericenter": 128.646,
        "meta_mean_anomaly": 231.4902,
        "meta_ephemeris_type": 0,
        "meta_classification_type": "U",
        "meta_norad_cat_id": 37849,
        "meta_element_set_no": 999,
        "meta_rev_at_epoch": 73130,
        "meta_bstar": 0.00010040847,
        "meta_mean_motion_dot": 1.67e-06,
        "meta_mean_motion_ddot": 0,
        "tle_line1": "1 37849U 11061A   25341.90057376  .00000167  00000+0  10041-3 0  9994",
        "tle_line2": "2 37849  98.7766 279.2859 0002081 128.6460 231.4902 14.19511923731307"
      },
      "geometry": {
        "type": "Point",
        "coordinates": [
          59.64961070387753,
          -76.5143097479338
        ]
      }
    },
    {
      "type": "Feature",
      "properties": {
        "norad_id": 38552,
        "name": "METEOSAT-10 (MSG-3)",
        "group": "weather",
        "lat": 2.0594818120804876,
        "lon": -147.67394013277473,
        "alt_km": 35784.91074131611,
        "timestamp": "2025-12-08T08:59:00.414687+00:00",
        "meta_object_name": "METEOSAT-10 (MSG-3)",
        "meta_object_id": "2012-035B",
        "meta_epoch": "2025-12-07T22:11:45.477888",
        "meta_mean_motion": 1.00273474,
        "meta_eccentricity": 8.846e-05,
        "meta_inclination": 4.2175,
        "meta_ra_of_asc_node": 61.7316,
        "meta_arg_of_pericenter": 234.3962,
        "meta_mean_anomaly": 113.8829,
        "meta_ephemeris_type": 0,
        "meta_classification_type": "U",
        "meta_norad_cat_id": 38552,
        "meta_element_set_no": 999,
        "meta_rev_at_epoch": 4893,
        "meta_bstar": 0,
        "meta_mean_motion_dot": -4e-08,
        "meta_mean_motion_ddot": 0,
        "tle_line1": "1 38552U 12035B   25341.92483192 -.00000004  00000+0  00000+0 0  9990",
        "tle_line2": "2 38552   4.2175  61.7316 0000884 234.3962 113.8829  1.00273474 48931"
      },
      "geometry": {
        "type": "Point",
        "coordinates": [
          -147.67394013277473,
          2.0594818120804876
        ]
      }
    },
    {
      "type": "Feature",
      "properties": {
        "norad_id": 38771,
        "name": "METOP-B",
        "group": "weather",
        "lat": 78.33490267099421,
        "lon": -15.321985524662681,
        "alt_km": 812.6366671657097,
        "timestamp": "2025-12-08T08:59:00.414702+00:00",
        "meta_object_name": "METOP-B",
        "meta_object_id": "2012-049A",
        "meta_epoch": "2025-12-07T22:27:41.916384",
        "meta_mean_motion": 14.21405545,
        "meta_eccentricity": 0.00027116,
        "meta_inclination": 98.6805,
        "meta_ra_of_asc_node": 31.976,
        "meta_arg_of_pericenter": 154.7462,
        "meta_mean_anomaly": 205.3849,
        "meta_ephemeris_type": 0,
        "meta_classification_type": "U",
        "meta_norad_cat_id": 38771,
        "meta_element_set_no": 999,
        "meta_rev_at_epoch": 68609,
        "meta_bstar": 0.00012767047,
        "meta_mean_motion_dot": 2.35e-06,
        "meta_mean_motion_ddot": 0,
        "tle_line1": "1 38771U 12049A   25341.93590181  .00000235  00000+0  12767-3 0  9998",
        "tle_line2": "2 38771  98.6805  31.9760 0002711 154.7462 205.3849 14.21405545686091"
      },
      "geometry": {
        "type": "Point",
        "coordinates": [
          -15.321985524662681,
          78.33490267099421
        ]
      }
    },
    {
      "type": "Feature",
      "properties": {
        "norad_id": 39216,
        "name": "INSAT-3D",
        "group": "weather",
        "lat": -1.395588388367855,
        "lon": -18.308360644691096,
        "alt_km": 35786.99629475287,
        "timestamp": "2025-12-08T08:59:00.414714+00:00",
        "meta_object_name": "INSAT-3D",
        "meta_object_id": "2013-038B",
        "meta_epoch": "2025-12-07T22:48:41.940288",
        "meta_mean_motion": 1.00271792,
        "meta_eccentricity": 0.00017174,
        "meta_inclination": 1.4323,
        "meta_ra_of_asc_node": 85.039,
        "meta_arg_of_pericenter": 161.2231,
        "meta_mean_anomaly": 302.422,
        "meta_ephemeris_type": 0,
        "meta_classification_type": "U",
        "meta_norad_cat_id": 39216,
        "meta_element_set_no": 999,
        "meta_rev_at_epoch": 4516,
        "meta_bstar": 0,
        "meta_mean_motion_dot": -3.36e-06,
        "meta_mean_motion_ddot": 0,
        "tle_line1": "1 39216U 13038B   25341.95048542 -.00000336  00000+0  00000+0 0  9999",
        "tle_line2": "2 39216   1.4323  85.0390 0001717 161.2231 302.4220  1.00271792 45161"
      },
      "geometry": {
        "type": "Point",
        "coordinates": [
          -18.308360644691096,
          -1.395588388367855
        ]
      }
    },
    {
      "type": "Feature",
      "properties": {
        "norad_id": 39260,
        "name": "FENGYUN 3C",
        "group": "weather",
        "lat": 57.80074189850378,
        "lon": -53.4307435499421,
        "alt_km": 843.1404489040806,
        "timestamp": "2025-12-08T08:59:00.414726+00:00",
        "meta_object_name": "FENGYUN 3C",
        "meta_object_id": "2013-052A",
        "meta_epoch": "2025-12-07T22:31:42.202560",
        "meta_mean_motion": 14.15693932,
        "meta_eccentricity": 0.00140273,
        "meta_inclination": 98.4759,
        "meta_ra_of_asc_node": 319.8526,
        "meta_arg_of_pericenter": 210.3308,
        "meta_mean_anomaly": 149.7056,
        "meta_ephemeris_type": 0,
        "meta_classification_type": "U",
        "meta_norad_cat_id": 39260,
        "meta_element_set_no": 999,
        "meta_rev_at_epoch": 63150,
        "meta_bstar": 0.00011407317,
        "meta_mean_motion_dot": 1.83e-06,
        "meta_mean_motion_ddot": 0,
        "tle_line1": "1 39260U 13052A   25341.93868290  .00000183  00000+0  11407-3 0  9998",
        "tle_line2": "2 39260  98.4759 319.8526 0014027 210.3308 149.7056 14.15693932631509"
      },
      "geometry": {
        "type": "Point",
        "coordinates": [
          -53.4307435499421,
          57.80074189850378
        ]
      }
    }
  ]
}